NORAD_CAT_ID,OBJECT_NAME,OBJECT_TYPE,EPOCH,MEAN_MOTION,ECCENTRICITY,INCLINATION,RA_OF_ASC_NODE,ARG_OF_PERICENTER,MEAN_ANOMALY,BSTAR,MEAN_MOTION_DOT,MEAN_MOTION_DDOT,TLE_LINE0,TLE_LINE1,TLE_LINE2,SEMIMAJOR_AXIS,PERIOD,APOGEE,PERIGEE,DECAYED
228,DELTA 1 DEB (YO),DEBRIS,2019-05-23 12:40:32,15.01092706,0.0014994000000000001,48.4296,263.8587,359.2185,0.8713,2.1405999999999998e-05,1.5e-07,0.0,0 DELTA 1 DEB (YO),1   228U 62002C   19143.52815821  .00000015  00000-0  21406-4 0  9995,2   228  48.4296 263.8587 0014994 359.2185   0.8713 15.01092706 76616,6941.663000000001,95.93,573.936,553.119,0.0
228,DELTA 1 DEB (YO),DEBRIS,2019-05-23 17:28:06,15.01092855,0.001498,48.4295,262.8769,0.14800000000000002,359.9446,2.1785999999999998e-05,2e-07,0.0,0 DELTA 1 DEB (YO),1   228U 62002C   19143.72784884 +.00000020 +00000-0 +21786-4 0  9998,2   228 048.4295 262.8769 0014980 000.1480 359.9446 15.01092855052510,6941.6619999999975,95.93,573.9259999999998,553.128,0.0
228,DELTA 1 DEB (YO),DEBRIS,2019-05-24 17:25:52,15.010935199999999,0.0014936,48.4295,257.9682,4.5897,355.51599999999996,2.1685e-05,1.8e-07,0.0,0 DELTA 1 DEB (YO),1   228U 62002C   19144.72630175  .00000018  00000-0  21685-4 0  9997,2   228  48.4295 257.9682 0014936   4.5897 355.5160 15.01093520 76791,6941.66,95.93,573.893,553.1569999999998,0.0
228,DELTA 1 DEB (YO),DEBRIS,2019-05-25 17:23:38,15.01094021,0.001489,48.4296,253.0596,9.0187,351.1001,1.9296e-05,-1.3e-07,0.0,0 DELTA 1 DEB (YO),1   228U 62002C   19145.72475420 -.00000013 +00000-0 +19296-4 0  9999,2   228 048.4296 253.0596 0014890 009.0187 351.1001 15.01094021052814,6941.659000000002,95.93,573.86,553.187,0.0
228,DELTA 1 DEB (YO),DEBRIS,2019-05-26 06:10:27,15.01094369,0.0014862,48.4295,250.4415,11.3398,348.7857,1.9745e-05,-7e-08,0.0,0 DELTA 1 DEB (YO),1   228U 62002C   19146.25726196 -.00000007  00000-0  19745-4 0  9999,2   228  48.4295 250.4415 0014862  11.3398 348.7857 15.01094369 77029,6941.656999999997,95.93,573.839,553.206,0.0
228,DELTA 1 DEB (YO),DEBRIS,2019-05-26 17:21:25,15.01094522,0.0014837,48.4295,248.1508,13.463,346.6687,1.8448e-05,-2.4e-07,0.0,0 DELTA 1 DEB (YO),1   228U 62002C   19146.72320626 -.00000024 +00000-0 +18448-4 0  9997,2   228 048.4295 248.1508 0014837 013.4630 346.6687 15.01094522052965,6941.656999999997,95.93,573.821,553.2230000000002,0.0
228,DELTA 1 DEB (YO),DEBRIS,2019-05-27 10:55:46,15.01095104,0.0014792,48.4294,244.551,16.7176,343.4232,2.1309000000000002e-05,1.4e-07,0.0,0 DELTA 1 DEB (YO),1   228U 62002C   19147.45540418  .00000014  00000-0  21309-4 0  9999,2   228  48.4294 244.5510 0014792  16.7176 343.4232 15.01095104 77200,6941.655,95.93,573.788,553.252,0.0
228,DELTA 1 DEB (YO),DEBRIS,2019-05-27 15:43:20,15.0109518,0.0014791,48.4294,243.5693,17.617,342.5263,2.1088000000000002e-05,1.1e-07,0.0,0 DELTA 1 DEB (YO),1   228U 62002C   19147.65509456 +.00000011 +00000-0 +21088-4 0  9999,2   228 048.4294 243.5693 0014791 017.6170 342.5263 15.01095180053105,6941.655,95.93,573.7869999999998,553.253,0.0
228,DELTA 1 DEB (YO),DEBRIS,2019-05-28 15:41:06,15.01095747,0.0014740999999999999,48.4292,238.6606,22.0953,338.0603,2.123e-05,1.3e-07,0.0,0 DELTA 1 DEB (YO),1   228U 62002C   19148.65354588 +.00000013 +00000-0 +21230-4 0  9995,2   228 048.4292 238.6606 0014741 022.0953 338.0603 15.01095747053259,6941.653,95.93,573.751,553.285,0.0
228,DELTA 1 DEB (YO),DEBRIS,2019-05-29 15:38:52,15.01096663,0.0014696,48.4291,233.7519,26.5975,333.57,2.5030999999999998e-05,6.2e-07,0.0,0 DELTA 1 DEB (YO),1   228U 62002C   19149.65199654  .00000062  00000-0  25031-4 0  9994,2   228  48.4291 233.7519 0014696  26.5975 333.5700 15.01096663 77532,6941.65,95.93,573.717,553.314,0.0
228,DELTA 1 DEB (YO),DEBRIS,2019-05-30 10:49:05,15.01097215,0.0014659,48.428999999999995,229.8248,30.1898,329.9867,2.5474e-05,6.8e-07,0.0,0 DELTA 1 DEB (YO),1   228U 62002C   19150.45075663 +.00000068 +00000-0 +25474-4 0  9994,2   228 048.4290 229.8248 0014659 030.1898 329.9867 15.01097215053520,6941.649,95.93,573.689,553.3380000000002,0.0
228,DELTA 1 DEB (YO),DEBRIS,2019-05-31 09:11:00,15.010975699999998,0.0014622,48.4288,225.2432,34.418,325.7688,2.3185e-05,3.8e-07,0.0,0 DELTA 1 DEB (YO),1   228U 62002C   19151.38264317 +.00000038 +00000-0 +23185-4 0  9997,2   228 048.4288 225.2432 0014622 034.4180 325.7688 15.01097570053667,6941.648,95.93,573.663,553.362,0.0
228,DELTA 1 DEB (YO),DEBRIS,2019-06-01 13:56:19,15.01098176,0.0014578,48.4287,219.3526,39.8783,320.3209,2.258e-05,3e-07,0.0,0 DELTA 1 DEB (YO),1   228U 62002C   19152.58078242  .00000030  00000-0  22580-4 0  9990,2   228  48.4287 219.3526 0014578  39.8783 320.3209 15.01098176 77975,6941.646,95.93,573.63,553.391,0.0
228,DELTA 1 DEB (YO),DEBRIS,2019-06-02 13:54:05,15.01098806,0.0014535,48.4286,214.4437,44.3917,315.8169,2.228e-05,2.6e-07,0.0,0 DELTA 1 DEB (YO),1   228U 62002C   19153.57923109 +.00000026 +00000-0 +22280-4 0  9993,2   228 048.4286 214.4437 0014535 044.3917 315.8169 15.01098806053994,6941.644,95.93,573.5980000000002,553.419,0.0
228,DELTA 1 DEB (YO),DEBRIS,2019-06-03 13:51:51,15.0109938,0.0014504000000000001,48.4285,209.5349,48.9784,311.2391,2.0829e-05,7e-08,0.0,0 DELTA 1 DEB (YO),1   228U 62002C   19154.57767918 +.00000007 +00000-0 +20829-4 0  9994,2   228 048.4285 209.5349 0014504 048.9784 311.2391 15.01099380054141,6941.642,95.93,573.575,553.439,0.0
228,DELTA 1 DEB (YO),DEBRIS,2019-06-04 09:02:04,15.01099895,0.0014474,48.4285,205.6077,52.6133,307.6106,2.0996e-05,1e-07,0.0,0 DELTA 1 DEB (YO),1   228U 62002C   19155.37643721  .00000010  00000-0  20996-4 0  9997,2   228  48.4285 205.6077 0014474  52.6133 307.6106 15.01099895 78399,6941.64,95.93,573.553,553.4580000000002,0.0
228,DELTA 1 DEB (YO),DEBRIS,2019-06-04 13:49:37,15.01100019,0.0014474,48.4285,204.62599999999998,53.5117,306.7137,2.116e-05,1.2e-07,0.0,0 DELTA 1 DEB (YO),1   228U 62002C   19155.57612669 +.00000012 +00000-0 +21160-4 0  9992,2   228 048.4285 204.6260 0014474 053.5117 306.7137 15.01100019054292,6941.64,95.93,573.552,553.4580000000002,0.0
228,DELTA 1 DEB (YO),DEBRIS,2019-06-05 12:11:32,15.01100545,0.0014437999999999999,48.4284,200.0445,57.7663,302.4658,2.1532e-05,1.6e-07,0.0,0 DELTA 1 DEB (YO),1   228U 62002C   19156.50801065 +.00000016 +00000-0 +21532-4 0  9993,2   228 048.4284 200.0445 0014438 057.7663 302.4658 15.01100545054439,6941.638000000001,95.93,573.526,553.481,0.0
228,DELTA 1 DEB (YO),DEBRIS,2019-06-06 07:21:44,15.01100999,0.0014412000000000001,48.4283,196.1173,61.4581,298.7791,2.1695e-05,1.9e-07,0.0,0 DELTA 1 DEB (YO),1   228U 62002C   19157.30676800 +.00000019 +00000-0 +21695-4 0  9992,2   228 048.4283 196.1173 0014412 061.4581 298.7791 15.01100999054555,6941.637,95.93,573.506,553.498,0.0
228,DELTA 1 DEB (YO),DEBRIS,2019-06-07 05:43:39,15.01101497,0.0014395999999999999,48.4282,191.5356,65.7604,294.4822,2.0867e-05,8e-08,0.0,0 DELTA 1 DEB (YO),1   228U 62002C   19158.23865115  .00000008  00000-0  20867-4 0  9992,2   228  48.4282 191.5356 0014396  65.7604 294.4822 15.01101497 78828,6941.635,95.93,573.494,553.507,0.0
228,DELTA 1 DEB (YO),DEBRIS,2019-06-07 12:07:03,15.01101644,0.0014395,48.4282,190.2267,66.9652,293.2788,2.0818000000000006e-05,7e-08,0.0,0 DELTA 1 DEB (YO),1   228U 62002C   19158.50490341 +.00000007 +00000-0 +20818-4 0  9992,2   228 048.4282 190.2267 0014395 066.9652 293.2788 15.01101644054736,6941.635,95.93,573.492,553.508,0.0
228,DELTA 1 DEB (YO),DEBRIS,2019-06-08 12:04:49,15.01102171,0.001438,48.428000000000004,185.3177,71.5608,288.6878,1.9968e-05,-4e-08,0.0,0 DELTA 1 DEB (YO),1   228U 62002C   19159.50334886 -.00000004 +00000-0 +19968-4 0  9996,2   228 048.4280 185.3177 0014380 071.5608 288.6878 15.01102171054886,6941.6330000000025,95.93,573.48,553.516,0.0
228,DELTA 1 DEB (YO),DEBRIS,2019-06-09 02:27:28,15.01102601,0.0014366,48.428000000000004,182.3722,74.3152,285.9355,2.1116e-05,1.1e-07,0.0,0 DELTA 1 DEB (YO),1   228U 62002C   19160.10241574 +.00000011 +00000-0 +21116-4 0  9990,2   228 048.4280 182.3722 0014366 074.3152 285.9355 15.01102601054976,6941.632,95.929,573.469,553.525,0.0
228,DELTA 1 DEB (YO),DEBRIS,2019-06-10 02:25:14,15.01103276,0.0014352,48.4279,177.4631,78.9471,281.3066,2.3659e-05,4.4e-07,0.0,0 DELTA 1 DEB (YO),1   228U 62002C   19161.10086036  .00000044  00000-0  23659-4 0  9991,2   228  48.4279 177.4631 0014352  78.9471 281.3066 15.01103276 79253,6941.63,95.929,573.4580000000002,553.5319999999998,0.0
228,DELTA 1 DEB (YO),DEBRIS,2019-06-10 10:24:29,15.01103286,0.0014355000000000001,48.4279,175.8269,80.499,279.7555,2.2323000000000006e-05,2.7e-07,0.0,0 DELTA 1 DEB (YO),1   228U 62002C   19161.43367535 +.00000027 +00000-0 +22323-4 0  9991,2   228 048.4279 175.8269 0014355 080.4990 279.7555 15.01103286055179,6941.63,95.929,573.46,553.53,0.0
228,DELTA 1 DEB (YO),DEBRIS,2019-06-11 21:33:12,15.01104062,0.0014342,48.4279,168.627,87.2818,272.9747,2.1924000000000002e-05,2.2e-07,0.0,0 DELTA 1 DEB (YO),1   228U 62002C   19162.89805966 +.00000022 +00000-0 +21924-4 0  9998,2   228 048.4279 168.6270 0014342 087.2818 272.9747 15.01104062055396,6941.628000000002,95.929,573.448,553.5369999999998,0.0
228,DELTA 1 DEB (YO),DEBRIS,2019-06-12 03:56:36,15.01104162,0.0014345999999999999,48.4279,167.3179,88.5018,271.7549,2.1204000000000002e-05,1.2e-07,0.0,0 DELTA 1 DEB (YO),1   228U 62002C   19163.16431127  .00000012  00000-0  21204-4 0  9993,2   228  48.4279 167.3179 0014346  88.5018 271.7549 15.01104162 79563,6941.6269999999995,95.929,573.451,553.534,0.0
228,DELTA 1 DEB (YO),DEBRIS,2019-06-12 21:30:57,15.01104562,0.0014347000000000001,48.428000000000004,163.718,91.8571,268.3996,2.1016e-05,1e-07,0.0,0 DELTA 1 DEB (YO),1   228U 62002C   19163.89650280 +.00000010 +00000-0 +21016-4 0  9995,2   228 048.4280 163.7180 0014347 091.8571 268.3996 15.01104562055543,6941.626,95.929,573.45,553.5319999999998,0.0
